{"type": "FeatureCollection", "features": [ {"type": "Feature", "properties": {"norad_id": 36437, "name": "COSMOS 2251 DEB", "group": "cosmos-2251-debris", "lat": -5.458189980444427, "lon": -138.79984411822048, "alt_km": 661.0481096767826, "timestamp": "2025-12-09T20:37:09.687202+00:00", "meta": {"OBJECT_NAME": "COSMOS 2251 DEB", "OBJECT_ID": "1993-036BAL", "EPOCH": "2025-12-08T11:07:20.893728", "MEAN_MOTION": 14.70572435, "ECCENTRICITY": 0.00231803, "INCLINATION": 73.9425, "RA_OF_ASC_NODE": 42.3459, "ARG_OF_PERICENTER": 273.747, "MEAN_ANOMALY": 86.105, "EPHEMERIS_TYPE": 0, "CLASSIFICATION_TYPE": "U", "NORAD_CAT_ID": 36437, "ELEMENT_SET_NO": 999, "REV_AT_EPOCH": 65988, "BSTAR": 0.0019147355, "MEAN_MOTION_DOT": 0.0001167, "MEAN_MOTION_DDOT": 0}, "tle": {"line1": "1 36437U 93036BAL 25342.46343627  .00011670  00000+0  19147-2 0  9993", "line2": "2 36437  73.9425  42.3459 0023180 273.7470  86.1050 14.70572435659880"}}, "geometry": {"type": "Point", "coordinates": [-138.79984411822048, -5.458189980444427]}}, {"type": "Feature", "properties": {"norad_id": 36439, "name": "COSMOS 2251 DEB", "group": "cosmos-2251-debris", "lat": -54.49892670159014, "lon": 17.543124192332733, "alt_km": 974.2987522328631, "timestamp": "2025-12-09T20:37:09.687212+00:00", "meta": {"OBJECT_NAME": "COSMOS 2251 DEB", "OBJECT_ID": "1993-036BAN", "EPOCH": "2025-12-09T11:58:56.463168", "MEAN_MOTION": 13.47786421, "ECCENTRICITY": 0.04275897, "INCLINATION": 73.9683, "RA_OF_ASC_NODE": 41.8872, "ARG_OF_PERICENTER": 14.4212, "MEAN_ANOMALY": 346.8655, "EPHEMERIS_TYPE": 0, "CLASSIFICATION_TYPE": "U", "NORAD_CAT_ID": 36439, "ELEMENT_SET_NO": 999, "REV_AT_EPOCH": 58569, "BSTAR": 0.0014152778, "MEAN_MOTION_DOT": 1.503e-05, "MEAN_MOTION_DDOT": 0}, "tle": {"line1": "1 36439U 93036BAN 25343.49926462  .00001503  00000+0  14153-2 0  9999", "line2": "2 36439  73.9683  41.8872 0427589  14.4212 346.8655 13.47786421585695"}}, "geometry": {"type": "Point", "coordinates": [17.543124192332733, -54.49892670159014]}}, {"type": "Feature", "properties": {"norad_id": 36441, "name": "COSMOS 2251 DEB", "group": "cosmos-2251-debris", "lat": -73.62544490658773, "lon": -85.0594170259887, "alt_km": 627.9274617219244, "timestamp": "2025-12-09T20:37:09.687222+00:00", "meta": {"OBJECT_NAME": "COSMOS 2251 DEB", "OBJECT_ID": "1993-036BAQ", "EPOCH": "2025-12-04T18:18:25.005024", "MEAN_MOTION": 15.06603971, "ECCENTRICITY": 0.01084902, "INCLINATION": 73.8352, "RA_OF_ASC_NODE": 6.3404, "ARG_OF_PERICENTER": 107.4279, "MEAN_ANOMALY": 253.8807, "EPHEMERIS_TYPE": 0, "CLASSIFICATION_TYPE": "U", "NORAD_CAT_ID": 36441, "ELEMENT_SET_NO": 999, "REV_AT_EPOCH": 86845, "BSTAR": 0.00090032635, "MEAN_MOTION_DOT": 0.00015248, "MEAN_MOTION_DDOT": 0}, "tle": {"line1": "1 36441U 93036BAQ 25338.76278941  .00015248  00000+0  90033-3 0  9991", "line2": "2 36441  73.8352   6.3404 0108490 107.4279 253.8807 15.06603971868459"}}, "geometry": {"type": "Point", "coordinates": [-85.0594170259887, -73.62544490658773]}}, {"type": "Feature", "properties": {"norad_id": 36442, "name": "COSMOS 2251 DEB", "group": "cosmos-2251-debris", "lat": -5.337446154359138, "lon": -133.0412501772144, "alt_km": 488.7947662997749, "timestamp": "2025-12-09T20:37:09.687234+00:00", "meta": {"OBJECT_NAME": "COSMOS 2251 DEB", "OBJECT_ID": "1993-036BAR", "EPOCH": "2025-12-08T10:48:39.469248", "MEAN_MOTION": 15.27762018, "ECCENTRICITY": 0.00088131, "INCLINATION": 73.9528, "RA_OF_ASC_NODE": 48.4206, "ARG_OF_PERICENTER": 323.6974, "MEAN_ANOMALY": 36.3628, "EPHEMERIS_TYPE": 0, "CLASSIFICATION_TYPE": "U", "NORAD_CAT_ID": 36442, "ELEMENT_SET_NO": 999, "REV_AT_EPOCH": 85850, "BSTAR": 0.005804433, "MEAN_MOTION_DOT": 0.00161056, "MEAN_MOTION_DDOT": 0}, "tle": {"line1": "1 36442U 93036BAR 25342.45045682  .00161056  00000+0  58044-2 0  9991", "line2": "2 36442  73.9528  48.4206 0008813 323.6974  36.3628 15.27762018858506"}}, "geometry": {"type": "Point", "coordinates": [-133.0412501772144, -5.337446154359138]}}, {"type": "Feature", "properties": {"norad_id": 36451, "name": "COSMOS 2251 DEB", "group": "cosmos-2251-debris", "lat": 49.3497002516458, "lon": 140.81089791096042, "alt_km": 718.9299428413578, "timestamp": "2025-12-09T20:37:09.687246+00:00", "meta": {"OBJECT_NAME": "COSMOS 2251 DEB", "OBJECT_ID": "1993-036BBA", "EPOCH": "2025-12-08T10:10:07.447584", "MEAN_MOTION": 14.18724413, "ECCENTRICITY": 0.01840749, "INCLINATION": 73.9539, "RA_OF_ASC_NODE": 342.9701, "ARG_OF_PERICENTER": 168.3937, "MEAN_ANOMALY": 192.1542, "EPHEMERIS_TYPE": 0, "CLASSIFICATION_TYPE": "U", "NORAD_CAT_ID": 36451, "ELEMENT_SET_NO": 999, "REV_AT_EPOCH": 84164, "BSTAR": 0.0010726423, "MEAN_MOTION_DOT": 2.61e-05, "MEAN_MOTION_DDOT": 0}, "tle": {"line1": "1 36451U 93036BBA 25342.42369731  .00002610  00000+0  10726-2 0  9997", "line2": "2 36451  73.9539 342.9701 0184074 168.3937 192.1542 14.18724413841646"}}, "geometry": {"type": "Point", "coordinates": [140.81089791096042, 49.3497002516458]}}, {"type": "Feature", "properties": {"norad_id": 36453, "name": "COSMOS 2251 DEB", "group": "cosmos-2251-debris", "lat": 30.52356161742487, "lon": 167.64723035308333, "alt_km": 672.0168477555344, "timestamp": "2025-12-09T20:37:09.687257+00:00", "meta": {"OBJECT_NAME": "COSMOS 2251 DEB", "OBJECT_ID": "1993-036BBC", "EPOCH": "2025-12-08T18:05:49.863840", "MEAN_MOTION": 14.52563562, "ECCENTRICITY": 0.00702771, "INCLINATION": 73.9225, "RA_OF_ASC_NODE": 159.9546, "ARG_OF_PERICENTER": 64.3856, "MEAN_ANOMALY": 311.5625, "EPHEMERIS_TYPE": 0, "CLASSIFICATION_TYPE": "U", "NORAD_CAT_ID": 36453, "ELEMENT_SET_NO": 999, "REV_AT_EPOCH": 84410, "BSTAR": 0.0013988315, "MEAN_MOTION_DOT": 5.883e-05, "MEAN_MOTION_DDOT": 0}, "tle": {"line1": "1 36453U 93036BBC 25342.75404935  .00005883  00000+0  13988-2 0  9999", "line2": "2 36453  73.9225 159.9546 0070277  64.3856 311.5625 14.52563562844104"}}, "geometry": {"type": "Point", "coordinates": [167.64723035308333, 30.52356161742487]}}, {"type": "Feature", "properties": {"norad_id": 36459, "name": "COSMOS 2251 DEB", "group": "cosmos-2251-debris", "lat": -41.37585096264547, "lon": -160.40618495600714, "alt_km": 852.2875922362937, "timestamp": "2025-12-09T20:37:09.687267+00:00", "meta": {"OBJECT_NAME": "COSMOS 2251 DEB", "OBJECT_ID": "1993-036BBJ", "EPOCH": "2025-12-08T08:14:17.711520", "MEAN_MOTION": 14.26367403, "ECCENTRICITY": 0.01135417, "INCLINATION": 74.048, "RA_OF_ASC_NODE": 7.7381, "ARG_OF_PERICENTER": 104.7075, "MEAN_ANOMALY": 256.669, "EPHEMERIS_TYPE": 0, "CLASSIFICATION_TYPE": "U", "NORAD_CAT_ID": 36459, "ELEMENT_SET_NO": 999, "REV_AT_EPOCH": 7819, "BSTAR": 0.0018203568, "MEAN_MOTION_DOT": 4.661e-05, "MEAN_MOTION_DDOT": 0}, "tle": {"line1": "1 36459U 93036BBJ 25342.34326055  .00004661  00000+0  18204-2 0  9995", "line2": "2 36459  74.0480   7.7381 0113541 104.7075 256.6690 14.26367403 78192"}}, "geometry": {"type": "Point", "coordinates": [-160.40618495600714, -41.37585096264547]}}, {"type": "Feature", "properties": {"norad_id": 36470, "name": "COSMOS 2251 DEB", "group": "cosmos-2251-debris", "lat": 30.046459759537953, "lon": 70.74173229118885, "alt_km": 536.0791259396274, "timestamp": "2025-12-09T20:37:09.687277+00:00", "meta": {"OBJECT_NAME": "COSMOS 2251 DEB", "OBJECT_ID": "1993-036BBV", "EPOCH": "2025-12-09T11:59:51.147456", "MEAN_MOTION": 15.06772898, "ECCENTRICITY": 0.00228111, "INCLINATION": 73.8444, "RA_OF_ASC_NODE": 261.1408, "ARG_OF_PERICENTER": 89.5384, "MEAN_ANOMALY": 270.8419, "EPHEMERIS_TYPE": 0, "CLASSIFICATION_TYPE": "U", "NORAD_CAT_ID": 36470, "ELEMENT_SET_NO": 999, "REV_AT_EPOCH": 66045, "BSTAR": 0.0047964256, "MEAN_MOTION_DOT": 0.00072511, "MEAN_MOTION_DDOT": 0}, "tle": {"line1": "1 36470U 93036BBV 25343.49989754  .00072511  00000+0  47964-2 0  9990", "line2": "2 36470  73.8444 261.1408 0022811  89.5384 270.8419 15.06772898660450"}}, "geometry": {"type": "Point", "coordinates": [70.74173229118885, 30.046459759537953]}}, {"type": "Feature", "properties": {"norad_id": 36528, "name": "COSMOS 2251 DEB", "group": "cosmos-2251-debris", "lat": -62.50364499499163, "lon": 117.05310949070959, "alt_km": 798.3047881114398, "timestamp": "2025-12-09T20:37:09.687288+00:00", "meta": {"OBJECT_NAME": "COSMOS 2251 DEB", "OBJECT_ID": "1993-036BCN", "EPOCH": "2025-12-07T18:35:16.209888", "MEAN_MOTION": 14.3059773, "ECCENTRICITY": 0.00852102, "INCLINATION": 74.0157, "RA_OF_ASC_NODE": 154.2656, "ARG_OF_PERICENTER": 204.8135, "MEAN_ANOMALY": 154.8907, "EPHEMERIS_TYPE": 0, "CLASSIFICATION_TYPE": "U", "NORAD_CAT_ID": 36528, "ELEMENT_SET_NO": 999, "REV_AT_EPOCH": 64356, "BSTAR": 0.0018462235, "MEAN_MOTION_DOT": 4.991e-05, "MEAN_MOTION_DDOT": 0}, "tle": {"line1": "1 36528U 93036BCN 25341.77449317  .00004991  00000+0  18462-2 0  9997", "line2": "2 36528  74.0157 154.2656 0085210 204.8135 154.8907 14.30597730643565"}}, "geometry": {"type": "Point", "coordinates": [117.05310949070959, -62.50364499499163]}}, {"type": "Feature", "properties": {"norad_id": 36533, "name": "COSMOS 2251 DEB", "group": "cosmos-2251-debris", "lat": -65.20944627984412, "lon": -21.382276281615525, "alt_km": 700.1363137726948, "timestamp": "2025-12-09T20:37:09.687298+00:00", "meta": {"OBJECT_NAME": "COSMOS 2251 DEB", "OBJECT_ID": "1993-036BCT", "EPOCH": "2025-12-09T02:54:07.447392", "MEAN_MOTION": 14.49792705, "ECCENTRICITY": 0.00491866, "INCLINATION": 74.0109, "RA_OF_ASC_NODE": 121.6303, "ARG_OF_PERICENTER": 271.4146, "MEAN_ANOMALY": 88.138, "EPHEMERIS_TYPE": 0, "CLASSIFICATION_TYPE": "U", "NORAD_CAT_ID": 36533, "ELEMENT_SET_NO": 999, "REV_AT_EPOCH": 84432, "BSTAR": 0.0006821937, "MEAN_MOTION_DOT": 2.643e-05, "MEAN_MOTION_DDOT": 0}, "tle": {"line1": "1 36533U 93036BCT 25343.12091953  .00002643  00000+0  68219-3 0  9991", "line2": "2 36533  74.0109 121.6303 0049186 271.4146  88.1380 14.49792705844329"}}, "geometry": {"type": "Point", "coordinates": [-21.382276281615525, -65.20944627984412]}}]}